[{"OBJECT_NAME":"ONEWEB-0508","OBJECT_ID":"2022-138P","EPOCH":"2025-10-15T05:29:42.510336","MEAN_MOTION":13.19724658,"ECCENTRICITY":0.00018648,"INCLINATION":87.9267,"RA_OF_ASC_NODE":353.7082,"ARG_OF_PERICENTER":111.7063,"MEAN_ANOMALY":248.4269,"EPHEMERIS_TYPE":0,"CLASSIFICATION_TYPE":"U","NORAD_CAT_ID":54126,"ELEMENT_SET_NO":999,"REV_AT_EPOCH":14452,"BSTAR":4.270042e-5,"MEAN_MOTION_DOT":3.0e-7,"MEAN_MOTION_DDOT":0},{"OBJECT_NAME":"ONEWEB-0509","OBJECT_ID":"2022-138Q","EPOCH":"2025-10-15T13:59:11.022144","MEAN_MOTION":13.19723261,"ECCENTRICITY":0.00018583,"INCLINATION":87.928,"RA_OF_ASC_NODE":353.604,"ARG_OF_PERICENTER":103.7054,"MEAN_ANOMALY":256.4286,"EPHEMERIS_TYPE":0,"CLASSIFICATION_TYPE":"U","NORAD_CAT_ID":54127,"ELEMENT_SET_NO":999,"REV_AT_EPOCH":14454,"BSTAR":-0.0001674021,"MEAN_MOTION_DOT":-5.4e-7,"MEAN_MOTION_DDOT":0},{"OBJECT_NAME":"ONEWEB-0510","OBJECT_ID":"2022-138R","EPOCH":"2025-10-15T12:18:26.918784","MEAN_MOTION":13.20771862,"ECCENTRICITY":0.00021643,"INCLINATION":87.9214,"RA_OF_ASC_NODE":323.2334,"ARG_OF_PERICENTER":82.4335,"MEAN_ANOMALY":277.7044,"EPHEMERIS_TYPE":0,"CLASSIFICATION_TYPE":"U","NORAD_CAT_ID":54128,"ELEMENT_SET_NO":999,"REV_AT_EPOCH":14698,"BSTAR":-0.00051523197,"MEAN_MOTION_DOT":-1.97e-6,"MEAN_MOTION_DDOT":0},{"OBJECT_NAME":"ONEWEB-0511","OBJECT_ID":"2022-138S","EPOCH":"2025-10-15T04:48:45.938016","MEAN_MOTION":13.1972533,"ECCENTRICITY":0.00016351,"INCLINATION":87.9277,"RA_OF_ASC_NODE":353.6835,"ARG_OF_PERICENTER":95.1968,"MEAN_ANOMALY":264.9351,"EPHEMERIS_TYPE":0,"CLASSIFICATION_TYPE":"U","NORAD_CAT_ID":54129,"ELEMENT_SET_NO":999,"REV_AT_EPOCH":14452,"BSTAR":0.00022839435,"MEAN_MOTION_DOT":1.04e-6,"MEAN_MOTION_DDOT":0},{"OBJECT_NAME":"ONEWEB-0512","OBJECT_ID":"2022-138T","EPOCH":"2025-10-15T15:32:26.824416","MEAN_MOTION":13.19724395,"ECCENTRICITY":0.0001675,"INCLINATION":87.9257,"RA_OF_ASC_NODE":353.6288,"ARG_OF_PERICENTER":110.0671,"MEAN_ANOMALY":250.0642,"EPHEMERIS_TYPE":0,"CLASSIFICATION_TYPE":"U","NORAD_CAT_ID":54130,"ELEMENT_SET_NO":999,"REV_AT_EPOCH":14455,"BSTAR":-0.00028276,"MEAN_MOTION_DOT":-1.0e-6,"MEAN_MOTION_DDOT":0},{"OBJECT_NAME":"ONEWEB-0513","OBJECT_ID":"2022-138U","EPOCH":"2025-10-15T05:23:08.516832","MEAN_MOTION":13.20317968,"ECCENTRICITY":0.00012717,"INCLINATION":87.9277,"RA_OF_ASC_NODE":353.6732,"ARG_OF_PERICENTER":106.0247,"MEAN_ANOMALY":254.1027,"EPHEMERIS_TYPE":0,"CLASSIFICATION_TYPE":"U","NORAD_CAT_ID":54131,"ELEMENT_SET_NO":999,"REV_AT_EPOCH":14439,"BSTAR":0.00017480318,"MEAN_MOTION_DOT":8.4e-7,"MEAN_MOTION_DDOT":0},{"OBJECT_NAME":"ONEWEB-0514","OBJECT_ID":"2022-138V","EPOCH":"2025-10-15T15:55:11.317152","MEAN_MOTION":13.1972606,"ECCENTRICITY":0.0001908,"INCLINATION":87.9274,"RA_OF_ASC_NODE":353.6056,"ARG_OF_PERICENTER":96.1778,"MEAN_ANOMALY":263.9572,"EPHEMERIS_TYPE":0,"CLASSIFICATION_TYPE":"U","NORAD_CAT_ID":54132,"ELEMENT_SET_NO":999,"REV_AT_EPOCH":14457,"BSTAR":-0.00071287,"MEAN_MOTION_DOT":-2.72e-6,"MEAN_MOTION_DDOT":0},{"OBJECT_NAME":"ONEWEB-0515","OBJECT_ID":"2022-138W","EPOCH":"2025-10-15T12:00:16.215552","MEAN_MOTION":13.20770167,"ECCENTRICITY":0.00027742,"INCLINATION":87.9224,"RA_OF_ASC_NODE":323.2177,"ARG_OF_PERICENTER":90.9216,"MEAN_ANOMALY":269.2235,"EPHEMERIS_TYPE":0,"CLASSIFICATION_TYPE":"U","NORAD_CAT_ID":54133,"ELEMENT_SET_NO":999,"REV_AT_EPOCH":14700,"BSTAR":0.00016580091,"MEAN_MOTION_DOT":8.0e-7,"MEAN_MOTION_DDOT":0},{"OBJECT_NAME":"ONEWEB-0516","OBJECT_ID":"2022-138X","EPOCH":"2025-10-15T11:40:26.712192","MEAN_MOTION":13.1972612,"ECCENTRICITY":0.0001983,"INCLINATION":87.9257,"RA_OF_ASC_NODE":353.6659,"ARG_OF_PERICENTER":103.8708,"MEAN_ANOMALY":256.2645,"EPHEMERIS_TYPE":0,"CLASSIFICATION_TYPE":"U","NORAD_CAT_ID":54134,"ELEMENT_SET_NO":999,"REV_AT_EPOCH":14455,"BSTAR":-0.00061333,"MEAN_MOTION_DOT":-2.33e-6,"MEAN_MOTION_DDOT":0},{"OBJECT_NAME":"ONEWEB-0517","OBJECT_ID":"2022-138Y","EPOCH":"2025-10-15T14:49:12.938304","MEAN_MOTION":13.19725483,"ECCENTRICITY":0.0001627,"INCLINATION":87.9275,"RA_OF_ASC_NODE":353.6095,"ARG_OF_PERICENTER":93.0566,"MEAN_ANOMALY":267.0753,"EPHEMERIS_TYPE":0,"CLASSIFICATION_TYPE":"U","NORAD_CAT_ID":54135,"ELEMENT_SET_NO":999,"REV_AT_EPOCH":14457,"BSTAR":-0.0006597,"MEAN_MOTION_DOT":-2.51e-6,"MEAN_MOTION_DDOT":0},{"OBJECT_NAME":"ONEWEB-0518","OBJECT_ID":"2022-138Z","EPOCH":"2025-10-15T15:16:31.397664","MEAN_MOTION":13.19721441,"ECCENTRICITY":0.0001849,"INCLINATION":87.926,"RA_OF_ASC_NODE":353.6376,"ARG_OF_PERICENTER":104.6605,"MEAN_ANOMALY":255.4732,"EPHEMERIS_TYPE":0,"CLASSIFICATION_TYPE":"U","NORAD_CAT_ID":54136,"ELEMENT_SET_NO":999,"REV_AT_EPOCH":14457,"BSTAR":-0.0010641,"MEAN_MOTION_DOT":-4.13e-6,"MEAN_MOTION_DDOT":0},{"OBJECT_NAME":"ONEWEB-0519","OBJECT_ID":"2022-138AA","EPOCH":"2025-10-15T14:03:43.860384","MEAN_MOTION":13.19723365,"ECCENTRICITY":0.0001695,"INCLINATION":87.9277,"RA_OF_ASC_NODE":353.608,"ARG_OF_PERICENTER":96.1772,"MEAN_ANOMALY":263.9554,"EPHEMERIS_TYPE":0,"CLASSIFICATION_TYPE":"U","NORAD_CAT_ID":54137,"ELEMENT_SET_NO":999,"REV_AT_EPOCH":14457,"BSTAR":-3.9357e-5,"MEAN_MOTION_DOT":-3.0e-8,"MEAN_MOTION_DDOT":0},{"OBJECT_NAME":"ONEWEB-0520","OBJECT_ID":"2022-138AB","EPOCH":"2025-10-15T14:53:46.623264","MEAN_MOTION":13.19723868,"ECCENTRICITY":0.000185,"INCLINATION":87.9275,"RA_OF_ASC_NODE":353.6046,"ARG_OF_PERICENTER":109.3439,"MEAN_ANOMALY":250.7894,"EPHEMERIS_TYPE":0,"CLASSIFICATION_TYPE":"U","NORAD_CAT_ID":54138,"ELEMENT_SET_NO":999,"REV_AT_EPOCH":14456,"BSTAR":-0.00030794,"MEAN_MOTION_DOT":-1.1e-6,"MEAN_MOTION_DDOT":0},{"OBJECT_NAME":"ONEWEB-0521","OBJECT_ID":"2022-138AC","EPOCH":"2025-10-15T13:52:22.656000","MEAN_MOTION":13.19725394,"ECCENTRICITY":0.0001756,"INCLINATION":87.9274,"RA_OF_ASC_NODE":353.5983,"ARG_OF_PERICENTER":93.1642,"MEAN_ANOMALY":266.9691,"EPHEMERIS_TYPE":0,"CLASSIFICATION_TYPE":"U","NORAD_CAT_ID":54139,"ELEMENT_SET_NO":999,"REV_AT_EPOCH":14450,"BSTAR":-0.00049077,"MEAN_MOTION_DOT":-1.84e-6,"MEAN_MOTION_DDOT":0},{"OBJECT_NAME":"ONEWEB-0522","OBJECT_ID":"2022-138AD","EPOCH":"2025-10-15T15:11:59.754336","MEAN_MOTION":13.19726023,"ECCENTRICITY":0.0001844,"INCLINATION":87.9273,"RA_OF_ASC_NODE":353.5885,"ARG_OF_PERICENTER":105.3496,"MEAN_ANOMALY":254.784,"EPHEMERIS_TYPE":0,"CLASSIFICATION_TYPE":"U","NORAD_CAT_ID":54140,"ELEMENT_SET_NO":999,"REV_AT_EPOCH":14455,"BSTAR":-0.00015546,"MEAN_MOTION_DOT":-4.9e-7,"MEAN_MOTION_DDOT":0},{"OBJECT_NAME":"ONEWEB-0523","OBJECT_ID":"2022-138AE","EPOCH":"2025-10-15T18:58:25.897728","MEAN_MOTION":13.20771186,"ECCENTRICITY":0.0002441,"INCLINATION":87.9214,"RA_OF_ASC_NODE":323.1833,"ARG_OF_PERICENTER":78.3501,"MEAN_ANOMALY":281.7906,"EPHEMERIS_TYPE":0,"CLASSIFICATION_TYPE":"U","NORAD_CAT_ID":54141,"ELEMENT_SET_NO":999,"REV_AT_EPOCH":14704,"BSTAR":-0.00095094,"MEAN_MOTION_DOT":-3.74e-6,"MEAN_MOTION_DDOT":0},{"OBJECT_NAME":"ONEWEB-0524","OBJECT_ID":"2022-138AF","EPOCH":"2025-10-15T11:26:11.760000","MEAN_MOTION":13.20772179,"ECCENTRICITY":0.0002855,"INCLINATION":87.9216,"RA_OF_ASC_NODE":323.2472,"ARG_OF_PERICENTER":96.986,"MEAN_ANOMALY":263.1599,"EPHEMERIS_TYPE":0,"CLASSIFICATION_TYPE":"U","NORAD_CAT_ID":54142,"ELEMENT_SET_NO":999,"REV_AT_EPOCH":14700,"BSTAR":1.9581585e-5,"MEAN_MOTION_DOT":2.1e-7,"MEAN_MOTION_DDOT":0}]
