ONEWEB-0508             
1 54126U 22138P   25288.22896424  .00000030  00000+0  42700-4 0  9995
2 54126  87.9267 353.7082 0001864 111.7063 248.4269 13.19724658144522
ONEWEB-0509             
1 54127U 22138Q   25288.58276646 -.00000054  00000+0 -16740-3 0  9995
2 54127  87.9280 353.6040 0001858 103.7054 256.4286 13.19723261144544
ONEWEB-0510             
1 54128U 22138R   25288.51281156 -.00000197  00000+0 -51523-3 0  9997
2 54128  87.9214 323.2334 0002164  82.4335 277.7044 13.20771862146987
ONEWEB-0511             
1 54129U 22138S   25288.20053169  .00000104  00000+0  22839-3 0  9999
2 54129  87.9277 353.6835 0001635  95.1968 264.9351 13.19725330144529
ONEWEB-0512             
1 54130U 22138T   25288.64753269 -.00000100  00000+0 -28276-3 0  9996
2 54130  87.9257 353.6288 0001675 110.0671 250.0642 13.19724395144555
ONEWEB-0513             
1 54131U 22138U   25288.22440413  .00000084  00000+0  17480-3 0  9999
2 54131  87.9277 353.6732 0001271 106.0247 254.1027 13.20317968144398
ONEWEB-0514             
1 54132U 22138V   25288.66332543 -.00000272  00000+0 -71287-3 0  9998
2 54132  87.9274 353.6056 0001908  96.1778 263.9572 13.19726060144578
ONEWEB-0515             
1 54133U 22138W   25288.50018768  .00000080  00000+0  16580-3 0  9992
2 54133  87.9224 323.2177 0002774  90.9216 269.2235 13.20770167147007
ONEWEB-0516             
1 54134U 22138X   25288.48642028 -.00000233  00000+0 -61333-3 0  9990
2 54134  87.9257 353.6659 0001983 103.8708 256.2645 13.19726120144553
ONEWEB-0517             
1 54135U 22138Y   25288.61751086 -.00000251  00000+0 -65970-3 0  9992
2 54135  87.9275 353.6095 0001627  93.0566 267.0753 13.19725483144578
ONEWEB-0518             
1 54136U 22138Z   25288.63647451 -.00000413  00000+0 -10641-2 0  9999
2 54136  87.9260 353.6376 0001849 104.6605 255.4732 13.19721441144572
ONEWEB-0519             
1 54137U 22138AA  25288.58592431 -.00000003  00000+0 -39357-4 0  9993
2 54137  87.9277 353.6080 0001695  96.1772 263.9554 13.19723365144575
ONEWEB-0520             
1 54138U 22138AB  25288.62067851 -.00000110  00000+0 -30794-3 0  9996
2 54138  87.9275 353.6046 0001850 109.3439 250.7894 13.19723868144564
ONEWEB-0521             
1 54139U 22138AC  25288.57804000 -.00000184  00000+0 -49077-3 0  9991
2 54139  87.9274 353.5983 0001756  93.1642 266.9691 13.19725394144508
ONEWEB-0522             
1 54140U 22138AD  25288.63333049 -.00000049  00000+0 -15546-3 0  9994
2 54140  87.9273 353.5885 0001844 105.3496 254.7840 13.19726023144557
ONEWEB-0523             
1 54141U 22138AE  25288.79057752 -.00000374  00000+0 -95094-3 0  9993
2 54141  87.9214 323.1833 0002441  78.3501 281.7906 13.20771186147041
ONEWEB-0524             
1 54142U 22138AF  25288.47652500  .00000021  00000+0  19582-4 0  9997
2 54142  87.9216 323.2472 0002855  96.9860 263.1599 13.20772179147008
